NORAD_CAT_ID,OBJECT_NAME,OBJECT_TYPE,EPOCH,MEAN_MOTION,ECCENTRICITY,INCLINATION,RA_OF_ASC_NODE,ARG_OF_PERICENTER,MEAN_ANOMALY,BSTAR,MEAN_MOTION_DOT,MEAN_MOTION_DDOT,TLE_LINE0,TLE_LINE1,TLE_LINE2,SEMIMAJOR_AXIS,PERIOD,APOGEE,PERIGEE,DECAYED
52640.0,STARLINK-3977,PAYLOAD,2024-07-25 21:28:14,15.08842449,8.61e-05,53.216,35.8197,83.3932,276.7159,6.1895e-05,6.98e-06,0.0,0 STARLINK-3977,1 52640U 22052AU  24207.89461142  .00000698  00000-0  61895-4 0  9994,2 52640  53.2160  35.8197 0000861  83.3932 276.7159 15.08842449121783,6917.873,95.437,540.334,539.142,0.0
52640.0,STARLINK-3977,PAYLOAD,2024-07-26 11:46:42,15.08839497,8.47e-05,53.2157,33.1431,85.8497,274.2592,9.7198e-05,1.26e-05,0.0,0 STARLINK-3977,1 52640U 22052AU  24208.49077426  .00001260  00000-0  97198-4 0  9990,2 52640  53.2157  33.1431 0000847  85.8497 274.2592 15.08839497121871,6917.882,95.438,540.333,539.161,0.0
52640.0,STARLINK-3977,PAYLOAD,2024-07-26 21:19:00,15.08853745,8.88e-05,53.2174,31.3596,113.1642,246.9444,0.0002005,2.906e-05,0.0,0 STARLINK-3977,1 52640U 22052AU  24208.88820042  .00002906  00000-0  20050-3 0  9993,2 52640  53.2174  31.3596 0000888 113.1642 246.9444 15.08853745121935,6917.838,95.437,540.318,539.089,0.0
52640.0,STARLINK-3977,PAYLOAD,2024-07-27 00:29:46,15.08860615,5.67e-05,53.2163,30.764,107.1692,252.9362,0.00025752,3.815e-05,0.0,0 STARLINK-3977,1 52640U 22052AU  24209.02067297  .00003815  00000-0  25752-3 0  9999,2 52640  53.2163  30.7640 0000567 107.1692 252.9362 15.08860615122333,6917.817,95.436,540.075,539.29,0.0
52640.0,STARLINK-3977,PAYLOAD,2024-07-27 21:09:49,15.08832395,0.0001454,53.2173,26.8997,96.9422,263.1736,1.5603e-07,-2.85e-06,0.0,0 STARLINK-3977,1 52640U 22052AU  24209.88182395 -.00000285  00000-0  15603-6 0  9996,2 52640  53.2173  26.8997 0001454  96.9422 263.1736 15.08832395122082,6917.904,95.438,540.774,538.763,0.0
52640.0,STARLINK-3977,PAYLOAD,2024-07-28 19:25:12,15.08847821,0.0001095,53.2172,22.7336,99.7244,260.3871,0.00011248,1.503e-05,0.0,0 STARLINK-3977,1 52640U 22052AU  24210.80917361  .00001503  00000-0  11248-3 0  9990,2 52640  53.2172  22.7336 0001095  99.7244 260.3871 15.08847821122604,6917.856,95.437,540.479,538.964,0.0
52640.0,STARLINK-3977,PAYLOAD,2024-07-28 21:00:35,15.08851479,9.09e-05,53.2168,22.4363,98.0463,262.0632,0.0001467,2.048e-05,0.0,0 STARLINK-3977,1 52640U 22052AU  24210.87541145  .00002048  00000-0  14670-3 0  9997,2 52640  53.2168  22.4363 0000909  98.0463 262.0632 15.08851479122231,6917.845,95.437,540.339,539.081,0.0
52640.0,STARLINK-3977,PAYLOAD,2024-07-29 11:19:04,15.08843142,0.0001492,53.2175,19.761,81.6894,278.4268,0.00023558,3.464e-05,0.0,0 STARLINK-3977,1 52640U 22052AU  24211.47157713  .00003464  00000-0  23558-3 0  9996,2 52640  53.2175  19.7610 0001492  81.6894 278.4268 15.08843142122703,6917.871,95.437,540.768,538.704,0.0
52640.0,STARLINK-3977,PAYLOAD,2024-07-29 17:40:36,15.08851568,0.0001106,53.2162,18.5678,120.7641,239.346,0.0002954,4.418e-05,0.0,0 STARLINK-3977,1 52640U 22052AU  24211.73653213  .00004418  00000-0  29540-3 0  9998,2 52640  53.2162  18.5678 0001106 120.7641 239.3460 15.08851568122360,6917.845,95.437,540.475,538.945,0.0
52640.0,STARLINK-3977,PAYLOAD,2024-07-30 04:48:18,15.08839051,0.0001758,53.2161,16.4881,92.7267,267.3927,3.9493e-05,3.4e-06,0.0,0 STARLINK-3977,1 52640U 22052AU  24212.20021663  .00000340  00000-0  39493-4 0  9998,2 52640  53.2161  16.4881 0001758  92.7267 267.3927 15.08839051122819,6917.883,95.438,540.964,538.532,0.0
52640.0,STARLINK-3977,PAYLOAD,2024-07-30 17:31:23,15.08846246,0.0001344,53.2184,14.1107,86.6534,273.4612,0.00013282,1.827e-05,0.0,0 STARLINK-3977,1 52640U 22052AU  24212.73013417  .00001827  00000-0  13282-3 0  9992,2 52640  53.2184  14.1107 0001344  86.6534 273.4612 15.08846246122510,6917.861,95.437,540.656,538.797,0.0
52640.0,STARLINK-3977,PAYLOAD,2024-07-31 14:11:24,15.08836625,0.000119,53.218,10.2458,82.3092,277.8036,1.4886e-05,-5.1e-07,0.0,0 STARLINK-3977,1 52640U 22052AU  24213.59125857 -.00000051  00000-0  14886-4 0  9990,2 52640  53.2180  10.2458 0001190  82.3092 277.8036 15.08836625122645,6917.891,95.438,540.579,538.932,0.0
52640.0,STARLINK-3977,PAYLOAD,2024-07-31 20:32:57,15.08843444,0.0001271,53.2182,9.055,92.5386,267.5752,4.2933e-05,3.96e-06,0.0,0 STARLINK-3977,1 52640U 22052AU  24213.85621635  .00000396  00000-0  42933-4 0  9999,2 52640  53.2182   9.0550 0001271  92.5386 267.5752 15.08843444123060,6917.87,95.437,540.614,538.856,0.0
52640.0,STARLINK-3977,PAYLOAD,2024-08-01 10:51:25,15.08844099,0.0001111,53.2181,6.3786,84.3842,275.7277,0.00020739,3.015e-05,0.0,0 STARLINK-3977,1 52640U 22052AU  24214.45237619  .00003015  00000-0  20739-3 0  9991,2 52640  53.2181   6.3786 0001111  84.3842 275.7277 15.08844099122776,6917.868,95.437,540.501,538.964,0.0
52640.0,STARLINK-3977,PAYLOAD,2024-08-02 02:45:14,15.08875885,0.0001081,53.2187,3.405,92.1078,268.0038,-0.00030029,-5.068e-05,0.0,0 STARLINK-3977,1 52640U 22052AU  24215.11475355 -.00005068  00000-0 -30029-3 0  9991,2 52640  53.2187   3.4050 0001081  92.1078 268.0038 15.08875885123259,6917.771,95.435,540.384,538.888,0.0
52640.0,STARLINK-3977,PAYLOAD,2024-08-02 10:42:13,15.0882307,0.0001475,53.2167,1.9191,84.1084,276.0076,-0.00019717,-3.423e-05,0.0,0 STARLINK-3977,1 52640U 22052AU  24215.44598466 -.00003423  00000-0 -19717-3 0  9990,2 52640  53.2167   1.9191 0001475  84.1084 276.0076 15.08823070123307,6917.932,95.439,540.818,538.777,0.0
52640.0,STARLINK-3977,PAYLOAD,2024-08-02 13:52:59,15.08826329,0.0001714,53.2192,1.328,96.6862,263.4325,-0.00013116,-2.374e-05,0.0,0 STARLINK-3977,1 52640U 22052AU  24215.57846517 -.00002374  00000-0 -13116-3 0  9998,2 52640  53.2192   1.3280 0001714  96.6862 263.4325 15.08826329122942,6917.922,95.438,540.973,538.601,0.0
52640.0,STARLINK-3977,PAYLOAD,2024-08-02 17:03:45,15.08829667,0.0001497,53.2186,0.734,102.308,257.808,-7.3986e-05,-1.465e-05,0.0,0 STARLINK-3977,1 52640U 22052AU  24215.71094338 -.00001465  00000-0 -73986-4 0  9992,2 52640  53.2186   0.7340 0001497 102.3080 257.8080 15.08829667122965,6917.912,95.438,540.813,538.741,0.0
52640.0,STARLINK-3977,PAYLOAD,2024-08-03 02:36:04,15.08836283,0.0001577,53.2197,358.9496,96.4155,263.7017,2.6933e-05,1.41e-06,0.0,0 STARLINK-3977,1 52640U 22052AU  24216.10838260  .00000141  00000-0  26933-4 0  9994,2 52640  53.2197 358.9496 0001577  96.4155 263.7017 15.08836283123400,6917.892,95.438,540.848,538.666,0.0
52640.0,STARLINK-3977,PAYLOAD,2024-08-03 13:43:46,15.08844075,0.0001589,53.2178,356.8673,93.2882,266.8291,0.00038254,5.806e-05,0.0,0 STARLINK-3977,1 52640U 22052AU  24216.57206032  .00005806  00000-0  38254-3 0  9992,2 52640  53.2178 356.8673 0001589  93.2882 266.8291 15.08844075123099,6917.868,95.437,540.832,538.634,0.0
52640.0,STARLINK-3977,PAYLOAD,2024-08-03 18:29:55,15.08864181,0.000142,53.2171,355.9745,88.5587,271.5568,0.0013824,0.00021796,0.0,0 STARLINK-3977,1 52640U 22052AU  24216.77077944  .00021796  00000-0  13824-2 0  9993,2 52640  53.2171 355.9745 0001420  88.5587 271.5568 15.08864181123501,6917.806,95.436,540.654,538.689,0.0
52640.0,STARLINK-3977,PAYLOAD,2024-08-04 02:26:51,15.08853055,0.0001266,53.2168,354.488,92.1298,267.9839,0.00090715,0.00014184,0.0,0 STARLINK-3977,1 52640U 22052AU  24217.10198038  .00014184  00000-0  90715-3 0  9997,2 52640  53.2168 354.4880 0001266  92.1298 267.9839 15.08853055123552,6917.84,95.437,540.581,538.83,0.0
52640.0,STARLINK-3977,PAYLOAD,2024-08-04 15:09:56,15.08854322,0.0001122,53.2167,352.109,97.8831,262.2289,0.00069131,0.00010736,0.0,0 STARLINK-3977,1 52640U 22052AU  24217.63189915  .00010736  00000-0  69131-3 0  9996,2 52640  53.2167 352.1090 0001122  97.8831 262.2289 15.08854322123257,6917.837,95.437,540.478,538.925,0.0
52640.0,STARLINK-3977,PAYLOAD,2024-08-04 18:20:42,15.08868411,0.0001328,53.2167,351.5143,93.3103,266.8041,0.0022898,0.00036371,0.0,0 STARLINK-3977,1 52640U 22052AU  24217.76437733  .00036371  00000-0  22898-2 0  9995,2 52640  53.2167 351.5143 0001328  93.3103 266.8041 15.08868411123272,6917.794,95.436,540.577,538.74,0.0
52640.0,STARLINK-3977,PAYLOAD,2024-08-05 02:17:38,15.08881074,0.0002152,53.2173,350.0274,80.0967,280.0268,0.0025869,0.0004117,0.0,0 STARLINK-3977,1 52640U 22052AU  24218.09557876  .00041170  00000-0  25869-2 0  9997,2 52640  53.2173 350.0274 0002152  80.0967 280.0268 15.08881074123702,6917.755,95.435,541.109,538.131,0.0
52640.0,STARLINK-3977,PAYLOAD,2024-08-05 15:00:42,15.0886154,0.0001528,53.2165,347.6454,94.6667,265.45,0.00064032,9.923e-05,0.0,0 STARLINK-3977,1 52640U 22052AU  24218.62549145  .00009923  00000-0  64032-3 0  9992,2 52640  53.2165 347.6454 0001528  94.6667 265.4500 15.08861540123789,6917.815,95.436,540.737,538.623,0.0
52640.0,STARLINK-3977,PAYLOAD,2024-08-06 02:08:24,15.08850091,0.0001674,53.2177,345.566,85.5769,274.5414,0.00031711,4.764e-05,0.0,0 STARLINK-3977,1 52640U 22052AU  24219.08917205  .00004764  00000-0  31711-3 0  9995,2 52640  53.2177 345.5660 0001674  85.5769 274.5414 15.08850091123854,6917.85,95.437,540.873,538.556,0.0
52640.0,STARLINK-3977,PAYLOAD,2024-08-06 11:40:43,15.08821207,0.0001558,53.2155,343.7837,87.2721,272.845,-0.00042674,-7.07e-05,0.0,0 STARLINK-3977,1 52640U 22052AU  24219.48661990 -.00007070  00000-0 -42674-3 0  9991,2 52640  53.2155 343.7837 0001558  87.2721 272.8450 15.08821207123919,6917.938,95.439,540.881,538.725,0.0
52640.0,STARLINK-3977,PAYLOAD,2024-08-06 14:51:30,15.08822532,0.0001546,53.2174,343.1881,99.1636,260.9531,0.0017351,0.00027421,0.0,0 STARLINK-3977,1 52640U 22052AU  24219.61910283  .00027421  00000-0  17351-2 0  9991,2 52640  53.2174 343.1881 0001546  99.1636 260.9531 15.08822532123557,6917.934,95.439,540.868,538.729,0.0
52640.0,STARLINK-3977,PAYLOAD,2024-08-07 11:31:31,15.08853068,0.0001522,53.2179,339.3227,96.8529,263.2637,0.0014704,0.00023199,0.0,0 STARLINK-3977,1 52640U 22052AU  24220.48022638  .00023199  00000-0  14704-2 0  9993,2 52640  53.2179 339.3227 0001522  96.8529 263.2637 15.08853068124060,6917.84,95.437,540.758,538.653,0.0
